NORAD_CAT_ID,OBJECT_NAME,OBJECT_TYPE,EPOCH,MEAN_MOTION,ECCENTRICITY,INCLINATION,RA_OF_ASC_NODE,ARG_OF_PERICENTER,MEAN_ANOMALY,BSTAR,MEAN_MOTION_DOT,MEAN_MOTION_DDOT,TLE_LINE0,TLE_LINE1,TLE_LINE2,SEMIMAJOR_AXIS,PERIOD,APOGEE,PERIGEE,DECAYED
51754.0,STARLINK-3457,PAYLOAD,2022-11-09 20:30:11,15.08803123,0.0002927,53.2198,7.2261,29.0784,331.0371,-0.00028671,-4.844e-05,0.0,0 STARLINK-3457,1 51754U 22016AS  22313.85430461 -.00004844  00000-0 -28671-3 0  9994,2 51754  53.2198   7.2261 0002927  29.0784 331.0371 15.08803123 41262,6917.993,95.44,541.883,537.8330000000002,0.0
51754.0,STARLINK-3457,PAYLOAD,2022-11-10 10:48:40,15.08813163,0.0002847,53.2188,4.5468,28.3209,331.7937,-0.00037087,-6.182e-05,0.0,0 STARLINK-3457,1 51754U 22016AS  22314.45046861 -.00006182  00000-0 -37087-3 0  9996,2 51754  53.2188   4.5468 0002847  28.3209 331.7937 15.08813163 40242,6917.962,95.439,541.797,537.8580000000002,0.0
51754.0,STARLINK-3457,PAYLOAD,2022-11-10 13:59:26,15.08820102,0.0002812,53.2187,3.9522,29.1858,330.9291,-0.00034457,-5.766e-05,0.0,0 STARLINK-3457,1 51754U 22016AS  22314.58294507 -.00005766  00000-0 -34457-3 0  9997,2 51754  53.2187   3.9522 0002812  29.1858 330.9291 15.08820102 41376,6917.941,95.439,541.752,537.861,0.0
51754.0,STARLINK-3457,PAYLOAD,2022-11-11 02:42:31,15.08819902,0.0002953,53.2187,1.5732,29.7329,330.3831,-0.00019417,-3.376e-05,0.0,0 STARLINK-3457,1 51754U 22016AS  22315.11286667 -.00003376  00000-0 -19417-3 0  9999,2 51754  53.2187   1.5732 0002953  29.7329 330.3831 15.08819902 41457,6917.941999999999,95.439,541.85,537.764,0.0
51754.0,STARLINK-3457,PAYLOAD,2022-11-11 12:14:50,15.08829138,0.0002925,53.2187,359.7886,31.0664,329.0501,-9.7336e-05,-1.837e-05,0.0,0 STARLINK-3457,1 51754U 22016AS  22315.51030298 -.00001837  00000-0 -97336-4 0  9997,2 51754  53.2187 359.7886 0002925  31.0664 329.0501 15.08829138 41510,6917.9140000000025,95.438,541.802,537.755,0.0
51754.0,STARLINK-3457,PAYLOAD,2022-11-11 20:11:45,15.08824317,0.0003032,53.2187,358.3019,36.3396,323.7802,0.00048399,7.42e-05,0.0,0 STARLINK-3457,1 51754U 22016AS  22315.84149989  .00007420  00000-0  48399-3 0  9997,2 51754  53.2187 358.3019 0003032  36.3396 323.7802 15.08824317 40454,6917.928000000001,95.439,541.891,537.696,0.0
51754.0,STARLINK-3457,PAYLOAD,2022-11-12 02:33:17,15.08837633,0.0002932,53.2189,357.1126,32.3491,327.7681,0.00063876,9.892e-05,0.0,0 STARLINK-3457,1 51754U 22016AS  22316.10645536  .00009892  00000-0  63876-3 0  9998,2 51754  53.2189 357.1126 0002932  32.3491 327.7681 15.08837633 41604,6917.888000000001,95.438,541.781,537.724,0.0
51754.0,STARLINK-3457,PAYLOAD,2022-11-12 12:05:37,15.08866084,0.0002886,53.2173,355.3313,30.1903,329.9255,0.00084763,0.00013238,0.0,0 STARLINK-3457,1 51754U 22016AS  22316.50390172  .00013238  00000-0  84763-3 0  9992,2 51754  53.2173 355.3313 0002886  30.1903 329.9255 15.08866084 40553,6917.801,95.436,541.6619999999998,537.669,0.0
51754.0,STARLINK-3457,PAYLOAD,2022-11-12 20:02:32,15.08872193,0.0002821,53.2174,353.8434,33.4965,326.6205,0.00056552,8.732e-05,0.0,0 STARLINK-3457,1 51754U 22016AS  22316.83509347  .00008732  00000-0  56552-3 0  9992,2 51754  53.2174 353.8434 0002821  33.4965 326.6205 15.08872193 40607,6917.781999999997,95.436,541.5980000000002,537.695,0.0
51754.0,STARLINK-3457,PAYLOAD,2022-11-13 03:59:27,15.08869139,0.0003338,53.2168,352.3562,31.1502,328.9687,-0.00019757,-3.435e-05,0.0,0 STARLINK-3457,1 51754U 22016AS  22317.16628859 -.00003435  00000-0 -19757-3 0  9992,2 51754  53.2168 352.3562 0003338  31.1502 328.9687 15.08869139 41765,6917.791,95.436,541.965,537.347,0.0
51754.0,STARLINK-3457,PAYLOAD,2022-11-13 08:45:36,15.08866784,0.000289,53.2171,351.4626,32.0608,328.0559,0.00017793,2.546e-05,0.0,0 STARLINK-3457,1 51754U 22016AS  22317.36500556  .00002546  00000-0  17793-3 0  9995,2 51754  53.2171 351.4626 0002890  32.0608 328.0559 15.08866784 40681,6917.799,95.436,541.663,537.664,0.0
51754.0,STARLINK-3457,PAYLOAD,2022-11-13 11:56:22,15.08851793,0.0002812,53.2183,350.8686,21.744,338.3671,0.00043076,6.576e-05,0.0,0 STARLINK-3457,1 51754U 22016AS  22317.49748799  .00006576  00000-0  43076-3 0  9992,2 51754  53.2183 350.8686 0002812  21.7440 338.3671 15.08851793 41815,6917.844,95.437,541.655,537.764,0.0
51754.0,STARLINK-3457,PAYLOAD,2022-11-14 08:36:24,15.08837675,0.0002858,53.2188,347.0016,25.0409,335.0721,-0.00019924,-3.458e-05,0.0,0 STARLINK-3457,1 51754U 22016AS  22318.35861210 -.00003458  00000-0 -19924-3 0  9995,2 51754  53.2188 347.0016 0002858  25.0409 335.0721 15.08837675 41944,6917.887,95.438,541.73,537.775,0.0
51754.0,STARLINK-3457,PAYLOAD,2022-11-15 06:51:47,15.088490099999998,0.0002917,53.2185,342.8389,28.0253,332.0895,0.00024523,3.618e-05,0.0,0 STARLINK-3457,1 51754U 22016AS  22319.28596916  .00003618  00000-0  24523-3 0  9993,2 51754  53.2185 342.8389 0002917  28.0253 332.0895 15.08849010 42084,6917.853,95.437,541.736,537.7,0.0
51754.0,STARLINK-3457,PAYLOAD,2022-11-15 08:27:10,15.08846202,0.0002866,53.2185,342.5402,26.9543,333.1598,0.00020143,2.919e-05,0.0,0 STARLINK-3457,1 51754U 22016AS  22319.35221043  .00002919  00000-0  20143-3 0  9994,2 51754  53.2185 342.5402 0002866  26.9543 333.1598 15.08846202 40988,6917.861,95.437,541.7090000000002,537.744,0.0
51754.0,STARLINK-3457,PAYLOAD,2022-11-16 03:31:48,15.08837361,0.0003452,53.2196,338.9723,22.5518,337.5626,7.365e-05,8.84e-06,0.0,0 STARLINK-3457,1 51754U 22016AS  22320.14709472  .00000884  00000-0  73650-4 0  9991,2 51754  53.2196 338.9723 0003452  22.5518 337.5626 15.08837361 42215,6917.888000000001,95.438,542.1419999999998,537.365,0.0
51754.0,STARLINK-3457,PAYLOAD,2022-11-16 06:42:35,15.08836448,0.0003078,53.2184,338.3777,26.5503,333.5646,3.3813e-05,2.49e-06,0.0,0 STARLINK-3457,1 51754U 22016AS  22320.27957492  .00000249  00000-0  33813-4 0  9994,2 51754  53.2184 338.3777 0003078  26.5503 333.5646 15.08836448 41129,6917.891,95.438,541.886,537.627,0.0
51754.0,STARLINK-3457,PAYLOAD,2022-11-16 17:50:17,15.08842159,0.0003056,53.2183,336.2954,28.8461,331.2699,0.00011135,1.484e-05,0.0,0 STARLINK-3457,1 51754U 22016AS  22320.74325332  .00001484  00000-0  11135-3 0  9992,2 51754  53.2183 336.2954 0003056  28.8461 331.2699 15.08842159 41192,6917.874,95.437,541.8530000000002,537.625,0.0
51754.0,STARLINK-3457,PAYLOAD,2022-11-17 01:47:12,15.08850894,0.0002978,53.2178,334.8096,28.9307,331.185,0.00029428,4.4e-05,0.0,0 STARLINK-3457,1 51754U 22016AS  22321.07444976  .00004400  00000-0  29428-3 0  9990,2 51754  53.2178 334.8096 0002978  28.9307 331.1850 15.08850894 42351,6917.847,95.437,541.7719999999998,537.6519999999998,0.0
51754.0,STARLINK-3457,PAYLOAD,2022-11-17 08:08:44,15.08850725,0.0002918999999999,53.2177,333.6196,30.6585,329.4577,0.00035725,5.404e-05,0.0,0 STARLINK-3457,1 51754U 22016AS  22321.33940933  .00005404  00000-0  35725-3 0  9995,2 51754  53.2177 333.6196 0002919  30.6585 329.4577 15.08850725 41281,6917.848000000001,95.437,541.732,537.693,0.0
51754.0,STARLINK-3457,PAYLOAD,2022-11-17 17:41:03,15.08841296,0.0003031,53.2179,331.8369,29.137,330.9791,2.0783e-05,4.2e-07,0.0,0 STARLINK-3457,1 51754U 22016AS  22321.73685152  .00000042  00000-0  20783-4 0  9990,2 51754  53.2179 331.8369 0003031  29.1370 330.9791 15.08841296 42454,6917.876,95.437,541.8380000000002,537.645,0.0
51754.0,STARLINK-3457,PAYLOAD,2022-11-18 01:37:59,15.08852074,0.0003054,53.2184,330.3489,25.6468,334.4675,0.00028852,4.308e-05,0.0,0 STARLINK-3457,1 51754U 22016AS  22322.06804707  .00004308  00000-0  28852-3 0  9999,2 51754  53.2184 330.3489 0003054  25.6468 334.4675 15.08852074 42503,6917.843000000003,95.437,541.821,537.596,0.0
51754.0,STARLINK-3457,PAYLOAD,2022-11-18 11:10:18,15.08849632,0.000323,53.2194,328.5668,24.7052,335.4094,0.00011734,1.58e-05,0.0,0 STARLINK-3457,1 51754U 22016AS  22322.46548635  .00001580  00000-0  11734-3 0  9998,2 51754  53.2194 328.5668 0003230  24.7052 335.4094 15.08849632 41452,6917.851,95.437,541.95,537.481,0.0
51754.0,STARLINK-3457,PAYLOAD,2022-11-19 01:28:46,15.08845017,0.0003085,53.2174,325.8892,28.2897,331.8262,6.6709e-05,7.73e-06,0.0,0 STARLINK-3457,1 51754U 22016AS  22323.06164656  .00000773  00000-0  66709-4 0  9998,2 51754  53.2174 325.8892 0003085  28.2897 331.8262 15.08845017 42656,6917.865,95.437,541.864,537.596,0.0
51754.0,STARLINK-3457,PAYLOAD,2022-11-19 09:25:41,15.08850941,0.0003177,53.2174,324.4022,28.9295,331.1873,0.00019547,2.825e-05,0.0,0 STARLINK-3457,1 51754U 22016AS  22323.39284390  .00002825  00000-0  19547-3 0  9999,2 51754  53.2174 324.4022 0003177  28.9295 331.1873 15.08850941 41592,6917.847,95.437,541.91,537.514,0.0
51754.0,STARLINK-3457,PAYLOAD,2022-11-19 17:22:37,15.08847366,0.0003099,53.2176,322.9159,27.9262,332.1896,0.0001813,2.599e-05,0.0,0 STARLINK-3457,1 51754U 22016AS  22323.72404521  .00002599  00000-0  18130-3 0  9991,2 51754  53.2176 322.9159 0003099  27.9262 332.1896 15.08847366 41643,6917.858,95.437,541.867,537.5790000000002,0.0
51754.0,STARLINK-3457,PAYLOAD,2022-11-20 09:16:28,15.08843433,0.0003023,53.2167,319.9412,29.4389,330.6773,0.00010148,1.327e-05,0.0,0 STARLINK-3457,1 51754U 22016AS  22324.38644552  .00001327  00000-0  10148-3 0  9993,2 51754  53.2167 319.9412 0003023  29.4389 330.6773 15.08843433 42857,6917.87,95.437,541.826,537.644,0.0
51754.0,STARLINK-3457,PAYLOAD,2022-11-20 17:13:24,15.08844481,0.0003133,53.2171,318.4542,29.4467,330.6702,0.00016577,2.351e-05,0.0,0 STARLINK-3457,1 51754U 22016AS  22324.71764594  .00002351  00000-0  16577-3 0  9999,2 51754  53.2171 318.4542 0003133  29.4467 330.6702 15.08844481 41797,6917.8669999999975,95.437,541.899,537.564,0.0
51754.0,STARLINK-3457,PAYLOAD,2022-11-21 09:07:16,15.08838231,0.0003112,53.2191,315.4822,27.732,332.3838,2.2844e-06,-2.52e-06,0.0,0 STARLINK-3457,1 51754U 22016AS  22325.38005000 -.00000252  00000-0  22844-5 0  9998,2 51754  53.2191 315.4822 0003112  27.7320 332.3838 15.08838231 43004,6917.886,95.438,541.904,537.5980000000002,0.0
